OBJECT_NAME,OBJECT_ID,EPOCH,MEAN_MOTION,ECCENTRICITY,INCLINATION,RA_OF_ASC_NODE,ARG_OF_PERICENTER,MEAN_ANOMALY,EPHEMERIS_TYPE,CLASSIFICATION_TYPE,NORAD_CAT_ID,ELEMENT_SET_NO,REV_AT_EPOCH,BSTAR,MEAN_MOTION_DOT,MEAN_MOTION_DDOT
STARLINK-35516,2025-225J,2026-05-29T23:11:23.523936,15.30184603,.00012269,53.1573,148.0328,97.2540,262.8600,0,U,65918,999,3685,.7779114E-3,.2274E-3,0
STARLINK-35519,2025-225K,2026-05-30T00:12:01.165248,15.30209214,.0001387,53.1574,147.5803,112.1259,247.9889,0,U,65919,999,3686,.79368E-3,.23228E-3,0
STARLINK-33902,2025-225L,2026-05-30T04:00:01.998720,15.34402983,.0000593,53.1601,147.4070,105.8955,126.6345,0,U,65920,999,570,-.50921E-4,-.2096E-4,0
STARLINK-35530,2025-225M,2026-05-29T23:58:30.607104,15.30205689,.0001163,53.1583,148.2396,105.6950,254.4179,0,U,65921,999,3685,.1267E-2,.37362E-3,0
STARLINK-35544,2025-225N,2026-05-30T00:00:02.000160,15.34387510,.0001497,53.1585,147.9337,92.7314,66.6202,0,U,65922,999,583,.17254E-2,.58351E-3,0
STARLINK-35484,2025-225P,2026-05-29T07:21:45.288288,15.30202895,.00011872,53.1568,151.0270,87.7080,272.4056,0,U,65923,999,3675,.99967301E-3,.29368E-3,0
STARLINK-34994,2025-225Q,2026-05-30T00:31:46.722720,15.30210963,.0001394,53.1576,147.6647,108.1996,251.9156,0,U,65924,999,3686,.61156E-3,.17803E-3,0
STARLINK-35458,2025-225R,2026-05-30T00:22:39.078048,15.30209205,.0001495,53.1559,147.6253,107.4161,252.7003,0,U,65925,999,3686,.52556E-3,.15243E-3,0
STARLINK-35492,2025-225S,2026-05-30T00:27:12.995424,15.30222459,.0001195,53.1569,147.6485,98.4819,261.6318,0,U,65926,999,3686,.12344E-2,.36405E-3,0
STARLINK-35494,2025-225T,2026-05-29T23:21:34.722720,15.34415140,.00017963,53.1589,148.0807,87.2461,272.8747,0,U,65927,999,3685,.119739E-2,.40317E-3,0
STARLINK-35493,2025-225U,2026-05-29T23:44:50.060256,15.30214612,.00017527,53.1587,148.1785,85.5454,274.5747,0,U,65928,999,3685,.89454447E-3,.2624E-3,0
STARLINK-35175,2025-225V,2026-05-29T23:25:04.615968,15.30216080,.00014726,53.1585,148.0925,103.2445,256.8720,0,U,65929,999,3685,.8933189E-3,.26205E-3,0
STARLINK-35513,2025-225W,2026-05-30T00:00:02.000160,15.33530598,.0001465,53.1598,148.0638,94.8189,357.0284,0,U,65930,999,563,.11516E-2,.37671E-3,0
STARLINK-35526,2025-225X,2026-05-29T23:20:31.137504,15.30217418,.00014628,53.1581,148.0708,91.3890,268.7279,0,U,65931,999,3685,.71529084E-3,.20897E-3,0
STARLINK-35436,2025-225Y,2026-05-30T00:50:00.642624,15.30210629,.0001484,53.1574,147.7429,99.5979,260.5190,0,U,65932,999,3686,.67566E-3,.19712E-3,0
STARLINK-35192,2025-225Z,2026-05-30T00:00:02.000160,15.34380377,.0001588,53.1591,148.0451,91.0084,10.1708,0,U,65933,999,587,.15164E-2,.51176E-3,0
STARLINK-33921,2025-225AA,2026-05-29T10:34:25.091616,15.30204631,.000184,53.1571,150.4387,42.4707,317.6436,0,U,65934,999,3588,.11758387E-2,.34634E-3,0
STARLINK-35155,2025-225AB,2026-05-29T09:41:23.678592,15.30206958,.00014688,53.1589,150.9227,71.6973,288.4188,0,U,65935,999,3587,.11775727E-2,.34688E-3,0
STARLINK-35161,2025-225AC,2026-05-29T06:46:55.951392,15.30219668,.00013302,53.1571,151.5872,96.3511,263.7641,0,U,65936,999,3585,-.56049529E-3,-.16932E-3,0
STARLINK-35473,2025-225AD,2026-05-29T23:56:59.551872,15.30198950,.0001694,53.1584,148.2302,91.9736,268.1458,0,U,65937,999,3596,.82563E-3,.24173E-3,0
2025-226A,2025-226A,2026-05-30T03:21:53.908992,15.16064318,.0013384,97.6449,230.4657,202.4807,157.5841,0,U,65938,999,3496,.56587E-3,.10851E-3,0
2025-226B,2025-226B,2026-05-30T03:11:27.985920,15.10368145,.0018557,97.6395,228.8036,192.1064,167.9722,0,U,65939,999,3485,.29849E-3,.4853E-4,0
2025-226C,2025-226C,2026-05-30T04:18:53.087040,15.15610833,.0013325,97.6354,230.1394,195.4056,164.6772,0,U,65940,999,3495,.60007E-3,.11364E-3,0
SHIYAN-31,2025-227A,2026-05-30T03:17:34.353024,15.23608198,.0009207,80.0017,158.4408,236.9657,123.0688,0,U,65945,999,3480,.24654E-3,.5925E-4,0
KUIPER-00101,2025-228A,2026-05-30T00:01:49.804896,14.79942233,.0000856,51.8993,1.0033,98.2608,261.8452,0,U,65947,999,3527,.44997E-3,.3211E-4,0
KUIPER-00113,2025-228B,2026-05-29T18:29:14.915328,14.79934136,.00007219,51.8990,357.0414,131.7867,228.3157,0,U,65948,999,3530,.28151683E-3,.1926E-4,0
KUIPER-00117,2025-228C,2026-05-30T00:05:43.090080,14.79929660,.0000786,51.8988,358.5102,114.8541,245.2503,0,U,65949,999,3530,.12773E-3,.753E-5,0
KUIPER-00121,2025-228D,2026-05-29T23:24:51.897024,14.79931980,.0000969,51.9009,353.6428,118.1901,241.9160,0,U,65950,999,3537,.17906E-3,.1144E-4,0
KUIPER-00122,2025-228E,2026-05-30T00:46:33.516768,14.79927734,.0000815,51.9001,3.3674,109.1540,250.9511,0,U,65951,999,3524,.49646E-3,.3565E-4,0
KUIPER-00123,2025-228F,2026-05-29T23:57:57.242880,14.79935240,.0000869,51.9005,3.5325,114.2937,245.8116,0,U,65952,999,3523,.26598E-3,.1807E-4,0
KUIPER-00124,2025-228G,2026-05-30T00:09:36.472032,14.79933489,.0000586,51.8994,355.9844,107.4332,252.6694,0,U,65953,999,3534,.3884E-3,.2741E-4,0
KUIPER-00125,2025-228H,2026-05-29T18:03:55.993824,14.79937551,.00007353,51.8996,342.1443,99.0049,261.0996,0,U,65954,999,3551,.43898196E-3,.3127E-4,0
KUIPER-00126,2025-228J,2026-05-29T23:13:12.901152,14.79941345,.00007335,51.9003,1.1844,128.4728,231.6301,0,U,65955,999,3526,.54590322E-3,.3944E-4,0
KUIPER-00127,2025-228K,2026-05-29T23:00:33.000192,14.79939303,.00011331,51.9014,353.6876,137.3385,222.7666,0,U,65956,999,3537,.43528168E-3,.3099E-4,0
KUIPER-00128,2025-228L,2026-05-30T00:13:29.409024,14.79937435,.0000746,51.9004,353.5288,123.7450,236.3584,0,U,65957,999,3537,.48088E-3,.3447E-4,0
KUIPER-00129,2025-228M,2026-05-29T21:55:23.501280,14.79933453,.00006111,51.9011,348.9328,121.5926,238.5096,0,U,65958,999,3543,.25380203E-3,.1714E-4,0
KUIPER-00130,2025-228N,2026-05-30T00:17:22.708896,14.79934427,.0000479,51.9032,351.0227,93.5355,266.5663,0,U,65959,999,2570,.19691E-3,.128E-4,0
KUIPER-00134,2025-228P,2026-05-29T15:36:38.829888,15.40806174,.00059619,51.8732,287.4701,243.7933,116.2442,0,U,65960,999,3626,.1396712E-2,.58223E-3,0
KUIPER-00135,2025-228Q,2026-05-29T23:28:45.930432,14.79931872,.0000711,51.9025,351.2287,111.9791,248.1247,0,U,65961,999,3540,.17564E-3,.1118E-4,0
KUIPER-00136,2025-228R,2026-05-29T17:52:09.534720,14.79920225,.00006207,51.9035,349.7252,61.2587,298.8438,0,U,65962,999,3540,-.18679924E-2,-.14426E-3,0
KUIPER-00137,2025-228S,2026-05-29T22:47:54.064320,14.79936742,.0000604,51.9046,346.2975,138.5929,221.5080,0,U,65963,999,3547,.34611609E-3,.2419E-4,0
KUIPER-00138,2025-228T,2026-05-29T23:40:23.951712,14.79933544,.0000588,51.8998,343.5860,103.0961,257.0067,0,U,65964,999,3551,.29884E-3,.2058E-4,0
KUIPER-00140,2025-228U,2026-05-29T23:36:31.369824,14.79936249,.0000843,51.8995,346.1849,107.6316,252.4738,0,U,65965,999,3547,.37792E-3,.2661E-4,0
KUIPER-00141,2025-228V,2026-05-29T22:06:52.617312,14.79994910,.00006984,51.9039,341.4991,119.2340,240.8692,0,U,65966,999,3553,.73383183E-3,.5386E-4,0
KUIPER-00146,2025-228W,2026-05-29T22:51:47.600064,14.79934006,.00006377,51.9044,343.8713,135.1187,224.9827,0,U,65967,999,3550,.31499445E-3,.2181E-4,0
KUIPER-00149,2025-228X,2026-05-29T22:10:55.345152,14.79936268,.00007449,51.9011,338.8909,110.8052,249.2990,0,U,65968,999,3557,.42807135E-3,.3044E-4,0
KUIPER-00154,2025-228Y,2026-05-29T23:03:25.863264,14.79932662,.00006088,51.9009,336.2238,109.4085,250.6943,0,U,65969,999,3561,.25402346E-3,.1716E-4,0
KUIPER-00157,2025-228Z,2026-05-29T22:59:33.923328,14.79930946,.00005751,51.9036,338.8628,120.0106,240.0914,0,U,65970,999,3557,.23452187E-3,.1567E-4,0
STRIX-5,2025-229A,2026-05-30T01:02:42.314784,15.04241926,.0038565,41.9297,27.9891,292.8446,66.8310,0,U,65971,999,3424,.44783E-3,.6247E-4,0
SDA_1664,2025-230A,2026-05-29T17:25:12.022176,13.79936025,.0001354,81.3001,229.2810,102.0355,258.0951,0,U,65974,999,3122,.11453146E-3,.13E-5,0
SDA_1665,2025-230B,2026-05-30T04:47:38.246208,13.82038802,.0001286,81.3017,228.5321,107.9006,252.2289,0,U,65975,999,3131,.15104E-3,.174E-5,0
SDA_1666,2025-230C,2026-05-30T03:45:58.016736,13.82601546,.0001099,81.3001,228.5782,128.5618,231.5637,0,U,65976,999,3130,.15807E-3,.183E-5,0
SDA_1667,2025-230D,2026-05-29T16:55:19.464960,13.81462733,.00013731,81.3000,229.1048,97.0469,263.0842,0,U,65977,999,3123,.13580307E-3,.156E-5,0
SDA_1668,2025-230E,2026-05-29T16:22:27.125760,13.85378918,.00024803,81.3006,228.6381,253.1148,106.9738,0,U,65978,999,3126,.10432518E-3,.131E-5,0
SDA_1669,2025-230F,2026-05-30T03:42:38.623680,13.84870095,.0002771,81.3011,228.2926,234.8659,125.2238,0,U,65979,999,3132,.17045E-3,.204E-5,0
SDA_1670,2025-230G,2026-05-30T03:49:41.161152,13.80999523,.0001167,81.2997,228.7184,122.4338,237.6929,0,U,65980,999,3129,.61497E-4,.77E-6,0
SDA_1671,2025-230H,2026-05-30T03:30:03.735648,13.82482471,.0000986,81.3003,228.4383,219.6213,140.4871,0,U,65981,999,3131,.15347E-3,.178E-5,0
SDA_1672,2025-230J,2026-05-29T17:47:46.263552,13.82252411,.00014127,81.3021,229.0601,109.4399,250.6909,0,U,65982,999,3124,.11124698E-3,.132E-5,0
SDA_1673,2025-230K,2026-05-29T16:02:19.835232,13.84126104,.00012898,81.3024,228.8134,118.3738,241.7549,0,U,65983,999,3125,.15988075E-3,.19E-5,0
SDA_1674,2025-230L,2026-05-29T16:35:49.600320,13.83800571,.00009726,81.3010,228.8136,213.2999,146.8097,0,U,65984,999,3125,.11988251E-3,.145E-5,0
SDA_1675,2025-230M,2026-05-29T17:32:09.536352,13.84758585,.00028568,81.2984,228.8080,183.7882,176.3254,0,U,65985,999,3125,.13825502E-3,.167E-5,0
SDA_1676,2025-230N,2026-05-30T04:47:12.359040,13.78913918,.0001151,81.3022,228.9925,126.1695,233.9565,0,U,65986,999,3128,.71258E-4,.84E-6,0
SDA_1677,2025-230P,2026-05-30T05:02:26.331936,13.78582617,.0001146,81.3000,228.9477,142.0921,218.0313,0,U,65987,999,3128,-.11037E-2,-.1106E-4,0
SDA_1678,2025-230Q,2026-05-30T04:51:14.647104,13.84979341,.0000626,81.3015,228.2182,208.9550,151.1572,0,U,65988,999,3133,.14113E-3,.171E-5,0
SDA_1679,2025-230R,2026-05-30T03:47:24.612000,13.84856981,.0002124,81.3032,228.3346,235.8904,124.2051,0,U,65989,999,3132,.20698E-3,.245E-5,0
SDA_1680,2025-230S,2026-05-30T03:50:58.989408,13.85228024,.00031,81.3014,228.3050,235.2307,124.8559,0,U,65990,999,3132,.19451E-3,.233E-5,0
